{
  "norad_id": 62780,
  "name": "STARLINK-33593",
  "history": [
    {
      "epoch": "2026-03-28T18:11:40.387776",
      "apogee_km": 475.90606276100243,
      "perigee_km": 474.46535726090315,
      "latitude_deg": 42.6958865094278,
      "longitude_deg": 170.77820863993838,
      "semi_major_axis_km": 6853.3227100109525,
      "eccentricity": 0.00010511,
      "inclination_deg": 53.157,
      "raan_deg": 233.6628,
      "arg_perigee_deg": 68.2241,
      "mean_anomaly_deg": 291.8872,
      "mean_motion_rev_day": 15.30209833
    }
  ]
}